[{"OBJECT_NAME":"OBJECT AD","OBJECT_ID":"2023-085AD","EPOCH":"2026-03-09T21:41:29.115744","MEAN_MOTION":15.31779154,"ECCENTRICITY":0.00101154,"INCLINATION":97.4841,"RA_OF_ASC_NODE":180.2223,"ARG_OF_PERICENTER":77.5993,"MEAN_ANOMALY":282.638,"EPHEMERIS_TYPE":0,"CLASSIFICATION_TYPE":"U","NORAD_CAT_ID":57031,"ELEMENT_SET_NO":999,"REV_AT_EPOCH":15156,"BSTAR":0.00068352515,"MEAN_MOTION_DOT":0.00020961,"MEAN_MOTION_DDOT":0},{"OBJECT_NAME":"STARLINK-34010","OBJECT_ID":"2025-093N","EPOCH":"2026-03-09T10:27:28.056096","MEAN_MOTION":15.27594806,"ECCENTRICITY":0.00023294,"INCLINATION":43.0039,"RA_OF_ASC_NODE":79.3094,"ARG_OF_PERICENTER":290.9216,"MEAN_ANOMALY":69.1387,"EPHEMERIS_TYPE":0,"CLASSIFICATION_TYPE":"U","NORAD_CAT_ID":63848,"ELEMENT_SET_NO":999,"REV_AT_EPOCH":4771,"BSTAR":0.00098401627,"MEAN_MOTION_DOT":0.00026928,"MEAN_MOTION_DDOT":0}]
